{
  "type": "FeatureCollection",
  "features": [
    {
      "type": "Feature",
      "properties": {
        "norad_id": 43647,
        "name": "BEIDOU-3 M16 (C35)",
        "group": "gnss",
        "lat": 40.6764771465891,
        "lon": -15.280786657263251,
        "alt_km": 21506.469127835917,
        "timestamp": "2025-12-12T05:47:29.014450+00:00",
        "meta_object_name": "BEIDOU-3 M16 (C35)",
        "meta_object_id": "2018-078A",
        "meta_epoch": "2025-12-11T14:59:43.951200",
        "meta_mean_motion": 1.86232286,
        "meta_eccentricity": 0.00071648,
        "meta_inclination": 54.263,
        "meta_ra_of_asc_node": 306.5601,
        "meta_arg_of_pericenter": 19.2099,
        "meta_mean_anomaly": 340.8083,
        "meta_ephemeris_type": 0,
        "meta_classification_type": "U",
        "meta_norad_cat_id": 43647,
        "meta_element_set_no": 999,
        "meta_rev_at_epoch": 4866,
        "meta_bstar": 0,
        "meta_mean_motion_dot": -8.9e-07,
        "meta_mean_motion_ddot": 0,
        "tle_line1": "1 43647U 18078A   25345.62481425 -.00000089  00000+0  00000+0 0  9995",
        "tle_line2": "2 43647  54.2630 306.5601 0007164  19.2099 340.8083  1.86232286 48663"
      },
      "geometry": {
        "type": "Point",
        "coordinates": [
          -15.280786657263251,
          40.6764771465891
        ]
      }
    },
    {
      "type": "Feature",
      "properties": {
        "norad_id": 43648,
        "name": "BEIDOU-3 M15 (C34)",
        "group": "gnss",
        "lat": -26.481496822173533,
        "lon": -74.48746131721992,
        "alt_km": 21525.089420790737,
        "timestamp": "2025-12-12T05:47:29.014460+00:00",
        "meta_object_name": "BEIDOU-3 M15 (C34)",
        "meta_object_id": "2018-078B",
        "meta_epoch": "2025-12-09T14:32:59.144640",
        "meta_mean_motion": 1.86231871,
        "meta_eccentricity": 0.0003622,
        "meta_inclination": 54.2606,
        "meta_ra_of_asc_node": 306.6314,
        "meta_arg_of_pericenter": 18.0065,
        "meta_mean_anomaly": 341.9965,
        "meta_ephemeris_type": 0,
        "meta_classification_type": "U",
        "meta_norad_cat_id": 43648,
        "meta_element_set_no": 999,
        "meta_rev_at_epoch": 4864,
        "meta_bstar": 0,
        "meta_mean_motion_dot": -7.7e-07,
        "meta_mean_motion_ddot": 0,
        "tle_line1": "1 43648U 18078B   25343.60624010 -.00000077  00000+0  00000+0 0  9998",
        "tle_line2": "2 43648  54.2606 306.6314 0003622  18.0065 341.9965  1.86231871 48642"
      },
      "geometry": {
        "type": "Point",
        "coordinates": [
          -74.48746131721992,
          -26.481496822173533
        ]
      }
    },
    {
      "type": "Feature",
      "properties": {
        "norad_id": 43683,
        "name": "BEIDOU-3 G1 (C59)",
        "group": "gnss",
        "lat": -1.1181627983528575,
        "lon": -51.88043015932859,
        "alt_km": 35792.238236623554,
        "timestamp": "2025-12-12T05:47:29.014472+00:00",
        "meta_object_name": "BEIDOU-3 G1 (C59)",
        "meta_object_id": "2018-085A",
        "meta_epoch": "2025-12-11T21:01:31.887264",
        "meta_mean_motion": 1.00270946,
        "meta_eccentricity": 0.00017564,
        "meta_inclination": 2.6059,
        "meta_ra_of_asc_node": 103.0016,
        "meta_arg_of_pericenter": 64.132,
        "meta_mean_anomaly": 9.1505,
        "meta_ephemeris_type": 0,
        "meta_classification_type": "U",
        "meta_norad_cat_id": 43683,
        "meta_element_set_no": 999,
        "meta_rev_at_epoch": 2618,
        "meta_bstar": 0,
        "meta_mean_motion_dot": -2.69e-06,
        "meta_mean_motion_ddot": 0,
        "tle_line1": "1 43683U 18085A   25345.87606351 -.00000269  00000+0  00000+0 0  9997",
        "tle_line2": "2 43683   2.6059 103.0016 0001756  64.1320   9.1505  1.00270946 26180"
      },
      "geometry": {
        "type": "Point",
        "coordinates": [
          -51.88043015932859,
          -1.1181627983528575
        ]
      }
    },
    {
      "type": "Feature",
      "properties": {
        "norad_id": 43687,
        "name": "COSMOS 2529 (757)",
        "group": "gnss",
        "lat": -40.24418581586188,
        "lon": 42.96978577738574,
        "alt_km": 19118.57297882849,
        "timestamp": "2025-12-12T05:47:29.014486+00:00",
        "meta_object_name": "COSMOS 2529 (757)",
        "meta_object_id": "2018-086A",
        "meta_epoch": "2025-12-11T11:27:45.415872",
        "meta_mean_motion": 2.13101904,
        "meta_eccentricity": 0.00072776,
        "meta_inclination": 64.292,
        "meta_ra_of_asc_node": 198.9311,
        "meta_arg_of_pericenter": 254.2169,
        "meta_mean_anomaly": 105.7727,
        "meta_ephemeris_type": 0,
        "meta_classification_type": "U",
        "meta_norad_cat_id": 43687,
        "meta_element_set_no": 999,
        "meta_rev_at_epoch": 5528,
        "meta_bstar": 0,
        "meta_mean_motion_dot": 5.5e-07,
        "meta_mean_motion_ddot": 0,
        "tle_line1": "1 43687U 18086A   25345.47760898  .00000055  00000+0  00000+0 0  9997",
        "tle_line2": "2 43687  64.2920 198.9311 0007277 254.2169 105.7727  2.13101904 55287"
      },
      "geometry": {
        "type": "Point",
        "coordinates": [
          42.96978577738574,
          -40.24418581586188
        ]
      }
    },
    {
      "type": "Feature",
      "properties": {
        "norad_id": 43706,
        "name": "BEIDOU-3 M17 (C36)",
        "group": "gnss",
        "lat": -31.63515094161626,
        "lon": 35.07409618104304,
        "alt_km": 21531.38110021426,
        "timestamp": "2025-12-12T05:47:29.014497+00:00",
        "meta_object_name": "BEIDOU-3 M17 (C36)",
        "meta_object_id": "2018-093A",
        "meta_epoch": "2025-12-11T15:30:48.559104",
        "meta_mean_motion": 1.86228399,
        "meta_eccentricity": 0.00062348,
        "meta_inclination": 54.1726,
        "meta_ra_of_asc_node": 188.6587,
        "meta_arg_of_pericenter": 307.4017,
        "meta_mean_anomaly": 234.1514,
        "meta_ephemeris_type": 0,
        "meta_classification_type": "U",
        "meta_norad_cat_id": 43706,
        "meta_element_set_no": 999,
        "meta_rev_at_epoch": 4804,
        "meta_bstar": 0,
        "meta_mean_motion_dot": 7.1e-07,
        "meta_mean_motion_ddot": 0,
        "tle_line1": "1 43706U 18093A   25345.64639536  .00000071  00000+0  00000+0 0  9998",
        "tle_line2": "2 43706  54.1726 188.6587 0006234 307.4017 234.1514  1.86228399 48041"
      },
      "geometry": {
        "type": "Point",
        "coordinates": [
          35.07409618104304,
          -31.63515094161626
        ]
      }
    },
    {
      "type": "Feature",
      "properties": {
        "norad_id": 43707,
        "name": "BEIDOU-3 M18 (C37)",
        "group": "gnss",
        "lat": -36.21531285466553,
        "lon": 156.6930273092414,
        "alt_km": 21519.165660178838,
        "timestamp": "2025-12-12T05:47:29.014508+00:00",
        "meta_object_name": "BEIDOU-3 M18 (C37)",
        "meta_object_id": "2018-093B",
        "meta_epoch": "2025-12-09T02:08:32.306784",
        "meta_mean_motion": 1.86226655,
        "meta_eccentricity": 0.00062934,
        "meta_inclination": 54.1729,
        "meta_ra_of_asc_node": 188.7377,
        "meta_arg_of_pericenter": 351.6926,
        "meta_mean_anomaly": 8.358,
        "meta_ephemeris_type": 0,
        "meta_classification_type": "U",
        "meta_norad_cat_id": 43707,
        "meta_element_set_no": 999,
        "meta_rev_at_epoch": 4799,
        "meta_bstar": 0,
        "meta_mean_motion_dot": 4.9e-07,
        "meta_mean_motion_ddot": 0,
        "tle_line1": "1 43707U 18093B   25343.08926281  .00000049  00000+0  00000+0 0  9996",
        "tle_line2": "2 43707  54.1729 188.7377 0006293 351.6926   8.3580  1.86226655 47998"
      },
      "geometry": {
        "type": "Point",
        "coordinates": [
          156.6930273092414,
          -36.21531285466553
        ]
      }
    },
    {
      "type": "Feature",
      "properties": {
        "norad_id": 43873,
        "name": "GPS BIII-1  (PRN 04)",
        "group": "gnss",
        "lat": 29.561269729061507,
        "lon": -103.3146332205226,
        "alt_km": 20117.71950534915,
        "timestamp": "2025-12-12T05:47:29.014521+00:00",
        "meta_object_name": "GPS BIII-1  (PRN 04)",
        "meta_object_id": "2018-109A",
        "meta_epoch": "2025-12-11T18:46:12.593280",
        "meta_mean_motion": 2.00553575,
        "meta_eccentricity": 0.00372966,
        "meta_inclination": 55.5668,
        "meta_ra_of_asc_node": 99.5845,
        "meta_arg_of_pericenter": 194.9269,
        "meta_mean_anomaly": 337.0503,
        "meta_ephemeris_type": 0,
        "meta_classification_type": "U",
        "meta_norad_cat_id": 43873,
        "meta_element_set_no": 999,
        "meta_rev_at_epoch": 5131,
        "meta_bstar": 0,
        "meta_mean_motion_dot": 2e-08,
        "meta_mean_motion_ddot": 0,
        "tle_line1": "1 43873U 18109A   25345.78209020  .00000002  00000+0  00000+0 0  9991",
        "tle_line2": "2 43873  55.5668  99.5845 0037296 194.9269 337.0503  2.00553575 51312"
      },
      "geometry": {
        "type": "Point",
        "coordinates": [
          -103.3146332205226,
          29.561269729061507
        ]
      }
    }
  ]
}